FENGYUN 1C DEB          
1 30857U 99025AWT 17345.78697815  .00001399  00000-0  84340-3 0  9993
2 30857  98.9247 278.4955 0077662 320.6869  38.8677 14.06876042553602
